OSCAR 7 (AO-7)          
1 07530U 74089B   26199.52413094 -.00000050  00000+0 -25006-4 0  9991
2 07530 101.9906 213.0974 0012645  72.2029  82.3408 12.53698622364449
PHASE 3B (AO-10)        
1 14129U 83058B   26198.95931596 -.00000201  00000+0  00000+0 0  9996
2 14129  25.9392 214.4954 6000614 124.1231 307.7423  2.05871393296123
UOSAT 2 (UO-11)         
1 14781U 84021B   26199.36437234  .00000547  00000+0  61196-4 0  9997
2 14781  97.8079 164.5959 0009246  82.6885 277.5384 14.90853037261779
LUSAT (LO-19)           
1 20442U 90005G   26199.50802264  .00000020  00000+0  23779-4 0  9993
2 20442  98.8847 222.1757 0012617 112.5014 247.7507 14.34131278906882
EYESAT A (AO-27)        
1 22825U 93061C   26199.60535373  .00000024  00000+0  26093-4 0  9996
2 22825  98.6865 267.0050 0008568  16.3290 343.8168 14.30949599711499
ITAMSAT (IO-26)         
1 22826U 93061D   26199.43558210  .00000032  00000+0  29069-4 0  9998
2 22826  98.6814 266.7560 0008754 359.7745   0.3433 14.31377276711782
RADIO ROSTO (RS15)      
1 23439U 94085A   26199.60060667 -.00000038  00000+0  12337-3 0  9995
2 23439  64.8145 252.4130 0157051 358.0830   1.9475 11.27583528299440
JAS-2 (FO-29)           
1 24278U 96046B   26199.51073439 -.00000035  00000+0  89785-7 0  9999
2 24278  98.5218  44.0889 0350199  15.3498 345.7949 13.53275823477400
TECHSAT 1B (GO-32)      
1 25397U 98043D   26198.97124761  .00000003  00000+0  21480-4 0  9994
2 25397  99.0087 192.5089 0002266 110.8541 249.2880 14.24433657455715
ISS (ZARYA)             
1 25544U 98067A   26199.34696572  .00003718  00000+0  75524-4 0  9994
2 25544  51.6316 145.8895 0006803 309.9700  50.0690 15.49039991576580
PCSAT (NO-44)           
1 26931U 01043C   26199.58962571  .00000019  00000+0  38009-4 0  9992
2 26931  67.0497 163.0499 0005874 266.9181  93.1249 14.31965710294948
SAUDISAT 1C (SO-50)     
1 27607U 02058C   26198.97124482  .00000371  00000+0  61897-4 0  9995
2 27607  64.5519  33.7353 0074441 256.7655 102.5140 14.83101410269029
CUTE-1 (CO-55)          
1 27844U 03031E   26199.29733931  .00000128  00000+0  74435-4 0  9993
2 27844  98.6744 207.4657 0010867  94.6885 265.5536 14.24352673196104
CUBESAT XI-IV (CO-57)   
1 27848U 03031J   26198.95002441  .00000107  00000+0  66203-4 0  9995
2 27848  98.6776 206.8106 0010632 112.1739 248.0569 14.23635431195756
MOZHAETS 4 (RS22)       
1 27939U 03042A   26199.65801486  .00000522  00000+0  88505-4 0  9992
2 27939  98.3474  24.9074 0011507 162.3531 286.3663 14.73518075220186
CUBESAT XI-V            
1 28895U 05043F   26199.38529580  .00000626  00000+0  10630-3 0  9997
2 28895  98.3020 355.6693 0015320 105.9745 254.3151 14.72706792106345
CUTE-1.7+APD II (CO-65) 
1 32785U 08021C   26199.60124888  .00001873  00000+0  12037-3 0  9994
2 32785  97.8299 181.6832 0006835 285.4283  74.6190 15.09717241989936
SEEDS II (CO-66)        
1 32791U 08021J   26199.46116429  .00009670  00000+0  29894-3 0  9999
2 32791  97.7530 198.8780 0003459 149.6253 210.5190 15.33733639992086
YUBILEINY (RS30)        
1 32953U 08025A   26199.64587069 -.00000095  00000+0 -75650-3 0  9990
2 32953  82.5069 335.8701 0018697 240.9937 118.9269 12.43180185823604
KKS-1 (KISEKI)          
1 33499U 09002H   26199.49266246  .00000576  00000+0  77384-4 0  9995
2 33499  98.1172 122.4309 0007693 178.0327 182.0918 14.83193388940833
SWISSCUBE               
1 35932U 09051B   26199.50323105  .00000430  00000+0  94449-4 0  9993
2 35932  98.4003 107.9339 0007978 110.2431 249.9628 14.62534100893739
BEESAT-1                
1 35933U 09051C   26199.46060355  .00000363  00000+0  82606-4 0  9991
2 35933  98.3930 107.4601 0006274 121.4564 238.7250 14.61764711893755
ITUPSAT1                
1 35935U 09051E   26199.47892063  .00000320  00000+0  76012-4 0  9990
2 35935  98.4014 106.6370 0008281 133.9775 226.2109 14.60481304893306
XIWANG-1 (HOPE-1)       
1 36122U 09072B   26199.63151714 -.00000375  00000+0 -86492-3 0  9995
2 36122 100.4043 152.9641 0007634 157.1163 203.0291 13.16437857797140
O/OREOS (USA 219)       
1 37224U 10062C   26199.46964592  .00000967  00000+0  96878-4 0  9992
2 37224  71.9699   9.4697 0014176 358.7498   1.3635 14.93858463121316
JUGNU                   
1 37839U 11058B   26199.07999843  .00000345  00000+0  40698-4 0  9993
2 37839  19.9598 120.7356 0018620  58.2060  59.5664 14.13783916763403
SRMSAT                  
1 37841U 11058D   26199.48245728  .00000322  00000+0  30967-4 0  9990
2 37841  19.9704 230.0483 0011664 187.3521 320.5069 14.11581472762240
STRAND-1                
1 39090U 13009E   26199.45524652  .00000108  00000+0  50687-4 0  9992
2 39090  98.3938  18.9224 0009562 132.2805 227.9194 14.37179953701553
ZACUBE-1 (TSHEPISOSAT)  
1 39417U 13066B   26199.33380740  .00001226  00000+0  98204-4 0  9992
2 39417  97.8004 161.8230 0044106 145.1896 215.2227 15.01336795685408
GOMX-1                  
1 39430U 13066Q   26199.50756527  .00000644  00000+0  10371-3 0  9997
2 39430  97.6461  37.9934 0127945 337.5445  22.0191 14.69547063674511
